[{"OBJECT_NAME":"JUGNU","OBJECT_ID":"2011-058B","EPOCH":"2026-03-09T11:56:36.486528","MEAN_MOTION":14.1374078,"ECCENTRICITY":0.00187632,"INCLINATION":19.9594,"RA_OF_ASC_NODE":194.0637,"ARG_OF_PERICENTER":55.3849,"MEAN_ANOMALY":14.6148,"EPHEMERIS_TYPE":0,"CLASSIFICATION_TYPE":"U","NORAD_CAT_ID":37839,"ELEMENT_SET_NO":999,"REV_AT_EPOCH":74490,"BSTAR":0.00014293025,"MEAN_MOTION_DOT":5.41e-6,"MEAN_MOTION_DDOT":0},{"OBJECT_NAME":"SL-14 DEB","OBJECT_ID":"1991-056AJ","EPOCH":"2026-03-09T01:17:04.443360","MEAN_MOTION":13.79138072,"ECCENTRICITY":0.01969862,"INCLINATION":82.6372,"RA_OF_ASC_NODE":95.7483,"ARG_OF_PERICENTER":186.613,"MEAN_ANOMALY":173.2426,"EPHEMERIS_TYPE":0,"CLASSIFICATION_TYPE":"U","NORAD_CAT_ID":45296,"ELEMENT_SET_NO":999,"REV_AT_EPOCH":30047,"BSTAR":0.0058213324,"MEAN_MOTION_DOT":6.901e-5,"MEAN_MOTION_DDOT":0}]
